STARLINK-1759           
1 46340U 20062R   26095.25002315  .00066733  00000+0  63861-3 0  9998
2 46340  53.0202 200.7418 0004077 354.8991 122.7052 15.66084599  5939
STARLINK-1762           
1 46342U 20062T   26095.11699485  .00082232  00000+0  26027-2 0  9999
2 46342  53.1572 248.1458 0001321  13.7631 346.3406 15.32065940308444
STARLINK-1764           
1 46343U 20062U   26095.25002315  .00156140  00000+0  10738-2 0  9997
2 46343  53.0402 185.7740 0006846  10.5286 252.6545 15.73656965  5955
STARLINK-1547           
1 46347U 20062Y   26095.25002315  .00014074  00000+0  11941-3 0  9998
2 46347  53.0333 148.0799 0003655 346.6850  45.4223 15.69993027  5794
STARLINK-1553           
1 46348U 20062Z   26094.76562508  .00030505  00000+0  81231-3 0  9995
2 46348  53.0376 184.1285 0002573 269.7468  90.3240 15.37955469309306
STARLINK-1575           
1 46349U 20062AA  26095.08334622  .01217077  93491-3  12960-2 0  9990
2 46349  53.0163 127.5921 0006694 356.9011   3.1980 16.09706880310115
STARLINK-1646           
1 46351U 20062AC  26095.25002315  .00219183  00000+0  24257-2 0  9994
2 46351  53.0436 206.2119 0004804 305.2244 138.0925 15.61769684  5926
STARLINK-1653           
1 46352U 20062AD  26095.20138755  .00099320  00000+0  95970-3 0  9998
2 46352  53.0418 192.8236 0011712 349.8937  10.1840 15.65602435309226
STARLINK-1656           
1 46353U 20062AE  26095.25002315  .00201328  00000+0  26104-2 0  9991
2 46353  53.0460 231.1923 0005534 305.3763 250.0504 15.57667480  5916
STARLINK-1657           
1 46354U 20062AF  26095.09334384  .01040901  65107-3  10816-2 0  9993
2 46354  53.0363 194.0865 0013278 346.0891  13.9775 16.09856979309182
STARLINK-1661           
1 46355U 20062AG  26094.65150439  .00076521  00000+0  24197-2 0  9992
2 46355  53.1580 250.3010 0001529 349.0541  11.0427 15.32130951308377
STARLINK-1665           
1 46356U 20062AH  26095.25002315  .00165427  00000+0  13225-2 0  9993
2 46356  53.0418 206.1422 0007836 357.8122  46.7101 15.70049370  5950
STARLINK-1666           
1 46357U 20062AJ  26095.25002315  .00051790  00000+0  52053-3 0  9994
2 46357  53.0438 204.7235 0004361 299.6277  67.2152 15.64958586  5778
STARLINK-1707           
1 46359U 20062AL  26095.25002315 -.00009916  00000+0 -75003-4 0  9992
2 46359  53.0208 143.5979 0002971 350.9993 110.2115 15.70335726  5850
STARLINK-1724           
1 46375U 20062BC  26095.25002315  .00155103  00000+0  19024-2 0  9997
2 46375  53.0262 158.5954 0007294  17.6060 164.3499 15.59301617  5913
STARLINK-1742           
1 46376U 20062BD  26095.28975115  .00703048  24301-3  11892-2 0  9994
2 46376  53.0174 120.2287 0003801 359.2817   0.8207 16.02132967310230
STARLINK-1770           
1 46383U 20062BL  26095.28036776  .00080094  00000+0  70192-3 0  9997
2 46383  53.0399 184.9652 0006388   1.4212 358.6821 15.68171017309333
STARLINK-1771           
1 46384U 20062BM  26095.25002315  .00158829  00000+0  26945-2 0  9995
2 46384  53.0392 218.8055 0006686 348.0190  11.7701 15.50439538  5802
GAOFEN-11 02            
1 46396U 20064A   26095.29200447  .00010703  00000+0  44956-3 0  9991
2 46396  97.5030 221.2665 0019532 198.7560 161.2960 15.23452370310432
JILIN-1 GAOFEN 3B       
1 46454U 20065A   26095.27559565  .00406534  66916-4  11105-2 0  9996
2 46454  97.2270 154.3619 0002751 205.5104 154.6036 15.94079408308938
JILIN-1 GAOFEN 3E       
1 46457U 20065D   26095.27694367  .00056335  00000+0  78990-3 0  9992
2 46457  97.2359 146.5786 0014081  78.2646 282.0188 15.56468457308390
JILIN-1 GAOFEN 3F       
1 46458U 20065E   26095.19872994  .00049279  00000+0  73902-3 0  9995
2 46458  97.2314 144.1244 0015281  67.0550 293.2315 15.54645521308346
JILIN-1 GAOFEN 3G       
1 46459U 20065F   26095.28355391  .00068776  00000+0  80721-3 0  9993
2 46459  97.2388 150.0470 0009581 322.0556  38.0026 15.61211919308534
JILIN-1 GAOFEN 3H       
1 46460U 20065G   26095.20147252  .00059843  00000+0  75839-3 0  9991
2 46460  97.2335 146.6287 0006484 239.9942 120.0672 15.59257878308483
JILIN-1 GAOFEN 3I       
1 46461U 20065H   26095.18235176  .00160161  00000+0  97668-3 0  9992
2 46461  97.2333 153.1332 0005744 341.1350  18.9702 15.76935519308767
JILIN-1 GAOFEN 3J       
1 46462U 20065J   26095.28312023  .00280080  00000+0  11073-2 0  9999
2 46462  97.2306 153.4788 0001261 200.8462 159.2758 15.86080486308878
HAIYANG-2C              
1 46469U 20066A   26095.29262363 -.00000266  00000+0 -16812-3 0  9994
2 46469  65.9992  36.7732 0011717 246.2721 113.7119 13.83371356279416
HJ-2A                   
1 46478U 20067A   26095.24827008  .00001626  00000+0  24075-3 0  9992
2 46478  97.8845 175.3370 0004291 125.7330 234.4280 14.76475570297495
HJ-2B                   
1 46479U 20067B   26095.28468476  .00001288  00000+0  19194-3 0  9997
2 46479  97.8907 176.3392 0001691  81.9915 278.1487 14.76529196297503
GONETS-M 17             
1 46486U 20068A   26095.27813396 -.00000108  00000+0 -84856-3 0  9999
2 46486  82.5022  32.8499 0021792 192.0150 168.0413 12.42869705250108
GONETS-M 18             
1 46487U 20068B   26095.24177087  .00000050  00000+0  28893-3 0  9990
2 46487  82.4977  32.0183 0019135 187.9909 172.0869 12.42869332250085
GONETS-M 19             
1 46488U 20068C   26095.29884352 -.00000015  00000+0 -18107-3 0  9996
2 46488  82.5001  32.4198 0012647 202.4009 157.6520 12.42889476250196
DEKART                  
1 46493U 20068H   26095.26662351  .00017229  00000+0  49789-3 0  9995
2 46493  97.8774  99.4072 0009591 171.8006 188.3395 15.35678148304572
NORBI                   
1 46494U 20068J   26095.25396918  .00029219  00000+0  61054-3 0  9999
2 46494  97.8680 104.9579 0008294 148.1520 212.0230 15.45431711304937
SALSAT                  
1 46495U 20068K   26095.25293326  .00010667  00000+0  38421-3 0  9998
2 46495  97.8868  93.9405 0009584 187.7921 172.3170 15.28731219304217
ICEYE-X7                
1 46496U 20068L   26095.25254201  .00016462  00000+0  56955-3 0  9999
2 46496  97.7453  58.5876 0006620 211.7001 148.3841 15.29950916303632
ICEYE-X6                
1 46497U 20068M   26095.22283652  .00006548  00000+0  47691-3 0  9990
2 46497  98.0974  85.4399 0006652 352.3437   7.7685 15.04115477302264
NETSAT-4                
1 46504U 20068U   26094.56652426  .00024658  00000+0  58947-3 0  9992
2 46504  97.8634  97.0289 0004748 202.4936 157.6102 15.41478677304427
NETSAT-3                
1 46505U 20068V   26095.22862883  .00023674  00000+0  58997-3 0  9999
2 46505  97.8681  96.0584 0004014 218.9146 141.1810 15.40228598304448
NETSAT-1                
1 46506U 20068W   26094.93419451  .00016946  00000+0  53501-3 0  9996
2 46506  97.8755  90.8995 0003179 257.6328 102.4557 15.32917538304079
NETSAT-2                
1 46507U 20068X   26094.95159525  .00025517  00000+0  58040-3 0  9999
2 46507  97.8653  97.1099 0002118 229.5311 130.5751 15.42976516304434
STARLINK-1663           
1 46535U 20070D   26095.16685734  .00128011  00000+0  99845-3 0  9994
2 46535  53.0427   4.8295 0002699 204.4289 155.6600 15.70806359304238
STARLINK-1672           
1 46537U 20070F   26095.16058702  .00064364  00000+0  93868-3 0  9994
2 46537  53.0499  11.0873 0004841 138.7508 221.3869 15.55098425304154
STARLINK-1678           
1 46538U 20070G   26095.25002315  .00092134  00000+0  77461-3 0  9991
2 46538  53.0429 341.0788 0001428 191.4223 265.0315 15.69146997  5799
STARLINK-1664           
1 46553U 20070X   26095.07067655  .00097450  00000+0  21925-2 0  9995
2 46553  53.0493   8.0985 0002075 127.5935 232.5258 15.42535396304181
STARLINK-1676           
1 46556U 20070AA  26095.25002315  .00217815  00000+0  28548-2 0  9997
2 46556  53.0442  16.8093 0003551 148.2771 193.2618 15.57325443  5911
STARLINK-1679           
1 46557U 20070AB  26094.96043139  .00096190  00000+0  96074-3 0  9995
2 46557  53.0460 355.9483 0002104 247.0533 113.0260 15.64864577304345
STARLINK-1680           
1 46558U 20070AC  26095.25002315  .00273374  00000+0  97073-3 0  9991
2 46558  53.0362 335.9684 0004017 154.3013 195.9209 15.87715061  5951
STARLINK-1681           
1 46559U 20070AD  26095.25002315  .00377166  65452-4  11061-2 0  9995
2 46559  53.0429 300.3608 0002271 222.2521 122.7484 15.92232576  5951
STARLINK-1714           
1 46562U 20070AG  26095.25002315  .00161783  00000+0  21986-2 0  9995
2 46562  53.0441 348.0974 0002197 227.8190 197.9445 15.56565799  5872
STARLINK-1730           
1 46563U 20070AH  26095.15695838  .00125522  00000+0  22852-2 0  9997
2 46563  53.0303 356.1035 0002587 126.6863 233.4382 15.48591484304367
STARLINK-1733           
1 46564U 20070AJ  26095.25002315  .00239362  00000+0  10393-2 0  9996
2 46564  53.0387 334.4368 0002523 216.2463 245.7093 15.83646281  5975
STARLINK-1735           
1 46565U 20070AK  26095.12538523  .00111578  00000+0  98092-3 0  9999
2 46565  53.0422 349.1502 0004529 248.8361 111.2170 15.67963485304453
STARLINK-1741           
1 46567U 20070AM  26095.25002315  .00060375  00000+0  50189-3 0  9993
2 46567  53.0405 347.1629 0003422 229.0152   4.7912 15.69589933  5940
STARLINK-1531           
1 46572U 20070AS  26095.25002315  .00107566  00000+0  88469-3 0  9995
2 46572  53.0533   8.9595 0004622 349.8659 230.6428 15.69603074  5910
STARLINK-1677           
1 46576U 20070AW  26095.25002315  .00121179  00000+0  88524-3 0  9997
2 46576  53.0372 353.1817 0003278 183.9586 192.7164 15.72386432  5802
STARLINK-1683           
1 46578U 20070AY  26095.25002315  .00488978  11141-3  10652-2 0  9990
2 46578  53.0031 296.5580 0003607 248.4624 282.7148 15.97718512  5895
STARLINK-1728           
1 46582U 20070BC  26095.25002315  .00186925  00000+0  23108-2 0  9990
2 46582  53.0406 356.8440 0003595 229.0994  91.6101 15.58994933  5911
STARLINK-1736           
1 46585U 20070BF  26095.25002315  .00122821  00000+0  85566-3 0  9995
2 46585  53.0408 344.6928 0003105 209.1635 301.2058 15.73494104  5924
